{"fetched_at":"2026-07-22T07:09:27.047Z","source":"https://celestrak.org/NORAD/elements/gp.php?GROUP=spire&FORMAT=JSON","constellation":"spire","records":[{"OBJECT_NAME":"LEMUR-2-LEIA-PHILIP","OBJECT_ID":"2025-052AN","EPOCH":"2026-07-21T10:02:06.111456","CLASSIFICATION_TYPE":"U","MEAN_MOTION":14.97395804,"ECCENTRICITY":0.00050604,"INCLINATION":97.6787,"RA_OF_ASC_NODE":93.7874,"ARG_OF_PERICENTER":106.7345,"MEAN_ANOMALY":253.4433,"EPHEMERIS_TYPE":0,"NORAD_CAT_ID":63246,"ELEMENT_SET_NO":999,"REV_AT_EPOCH":7379,"BSTAR":0.000051270086,"MEAN_MOTION_DOT":0.00000538,"MEAN_MOTION_DDOT":0},{"OBJECT_NAME":"LEMUR-2-LIA-MARTIN","OBJECT_ID":"2025-052AQ","EPOCH":"2026-07-21T06:38:00.729312","CLASSIFICATION_TYPE":"U","MEAN_MOTION":14.98052658,"ECCENTRICITY":0.00048453,"INCLINATION":97.6849,"RA_OF_ASC_NODE":94.1774,"ARG_OF_PERICENTER":75.1946,"MEAN_ANOMALY":284.9813,"EPHEMERIS_TYPE":0,"NORAD_CAT_ID":63248,"ELEMENT_SET_NO":999,"REV_AT_EPOCH":7378,"BSTAR":0.00020205491,"MEAN_MOTION_DOT":0.00002331,"MEAN_MOTION_DDOT":0},{"OBJECT_NAME":"LEMUR-2-DELOITTE-1","OBJECT_ID":"2025-052BB","EPOCH":"2026-07-21T12:36:05.422464","CLASSIFICATION_TYPE":"U","MEAN_MOTION":14.978178,"ECCENTRICITY":0.00024921,"INCLINATION":97.6886,"RA_OF_ASC_NODE":94.7523,"ARG_OF_PERICENTER":54.5188,"MEAN_ANOMALY":305.6266,"EPHEMERIS_TYPE":0,"NORAD_CAT_ID":63259,"ELEMENT_SET_NO":999,"REV_AT_EPOCH":7383,"BSTAR":0.00026750231,"MEAN_MOTION_DOT":0.00003086,"MEAN_MOTION_DDOT":0},{"OBJECT_NAME":"LEMUR-2-EMERSONROSE","OBJECT_ID":"2025-052BD","EPOCH":"2026-07-21T06:22:55.869888","CLASSIFICATION_TYPE":"U","MEAN_MOTION":14.99322882,"ECCENTRICITY":0.00023586,"INCLINATION":97.6883,"RA_OF_ASC_NODE":95.1243,"ARG_OF_PERICENTER":46.3437,"MEAN_ANOMALY":313.7981,"EPHEMERIS_TYPE":0,"NORAD_CAT_ID":63261,"ELEMENT_SET_NO":999,"REV_AT_EPOCH":7384,"BSTAR":0.00024444912,"MEAN_MOTION_DOT":0.00002928,"MEAN_MOTION_DDOT":0},{"OBJECT_NAME":"LEMUR-2-MARACHE-FRAN","OBJECT_ID":"2025-052BE","EPOCH":"2026-07-21T05:13:39.686880","CLASSIFICATION_TYPE":"U","MEAN_MOTION":15.00340069,"ECCENTRICITY":0.00059176,"INCLINATION":97.6814,"RA_OF_ASC_NODE":95.449,"ARG_OF_PERICENTER":228.3986,"MEAN_ANOMALY":131.6731,"EPHEMERIS_TYPE":0,"NORAD_CAT_ID":63262,"ELEMENT_SET_NO":999,"REV_AT_EPOCH":7386,"BSTAR":0.00023280345,"MEAN_MOTION_DOT":0.00002862,"MEAN_MOTION_DDOT":0},{"OBJECT_NAME":"LEMUR-2-THEFALCONER","OBJECT_ID":"2025-052BG","EPOCH":"2026-07-21T11:45:06.843456","CLASSIFICATION_TYPE":"U","MEAN_MOTION":14.97583797,"ECCENTRICITY":0.00008189,"INCLINATION":97.6812,"RA_OF_ASC_NODE":94.3007,"ARG_OF_PERICENTER":210.8194,"MEAN_ANOMALY":149.298,"EPHEMERIS_TYPE":0,"NORAD_CAT_ID":63264,"ELEMENT_SET_NO":999,"REV_AT_EPOCH":7382,"BSTAR":0.0001886938,"MEAN_MOTION_DOT":0.00002146,"MEAN_MOTION_DDOT":0},{"OBJECT_NAME":"LEMUR-2-UNTITLED-SC","OBJECT_ID":"2025-061A","EPOCH":"2026-07-21T08:00:47.581920","CLASSIFICATION_TYPE":"U","MEAN_MOTION":15.13672117,"ECCENTRICITY":0.00197508,"INCLINATION":97.5662,"RA_OF_ASC_NODE":177.4555,"ARG_OF_PERICENTER":142.7296,"MEAN_ANOMALY":217.5311,"EPHEMERIS_TYPE":0,"NORAD_CAT_ID":63351,"ELEMENT_SET_NO":999,"REV_AT_EPOCH":7275,"BSTAR":0.00013780225,"MEAN_MOTION_DOT":0.00002423,"MEAN_MOTION_DDOT":0},{"OBJECT_NAME":"LEMUR-2-ESPERANZA","OBJECT_ID":"2025-061B","EPOCH":"2026-07-21T08:59:50.454528","CLASSIFICATION_TYPE":"U","MEAN_MOTION":15.13778548,"ECCENTRICITY":0.00194001,"INCLINATION":97.5669,"RA_OF_ASC_NODE":177.598,"ARG_OF_PERICENTER":141.9875,"MEAN_ANOMALY":218.273,"EPHEMERIS_TYPE":0,"NORAD_CAT_ID":63352,"ELEMENT_SET_NO":999,"REV_AT_EPOCH":7276,"BSTAR":0.00013205124,"MEAN_MOTION_DOT":0.00002325,"MEAN_MOTION_DDOT":0},{"OBJECT_NAME":"LEMUR-2-KREMPEL-BRO2","OBJECT_ID":"2025-061C","EPOCH":"2026-07-21T09:24:39.137760","CLASSIFICATION_TYPE":"U","MEAN_MOTION":15.14206402,"ECCENTRICITY":0.00204883,"INCLINATION":97.5715,"RA_OF_ASC_NODE":178.1919,"ARG_OF_PERICENTER":134.896,"MEAN_ANOMALY":225.3939,"EPHEMERIS_TYPE":0,"NORAD_CAT_ID":63353,"ELEMENT_SET_NO":999,"REV_AT_EPOCH":7278,"BSTAR":0.00014117533,"MEAN_MOTION_DOT":0.00002523,"MEAN_MOTION_DDOT":0},{"OBJECT_NAME":"LEMUR-2-THERMORAPTOR","OBJECT_ID":"2025-061D","EPOCH":"2026-07-21T08:56:09.936672","CLASSIFICATION_TYPE":"U","MEAN_MOTION":15.14289501,"ECCENTRICITY":0.00202313,"INCLINATION":97.5721,"RA_OF_ASC_NODE":178.2545,"ARG_OF_PERICENTER":133.9523,"MEAN_ANOMALY":226.3381,"EPHEMERIS_TYPE":0,"NORAD_CAT_ID":63354,"ELEMENT_SET_NO":999,"REV_AT_EPOCH":7278,"BSTAR":0.00013846152,"MEAN_MOTION_DOT":0.00002478,"MEAN_MOTION_DDOT":0},{"OBJECT_NAME":"LEMUR-2-NEUROSPICY","OBJECT_ID":"2025-061E","EPOCH":"2026-07-21T08:11:34.164960","CLASSIFICATION_TYPE":"U","MEAN_MOTION":15.14408159,"ECCENTRICITY":0.0018014,"INCLINATION":97.5648,"RA_OF_ASC_NODE":177.8235,"ARG_OF_PERICENTER":136.843,"MEAN_ANOMALY":223.4217,"EPHEMERIS_TYPE":0,"NORAD_CAT_ID":63355,"ELEMENT_SET_NO":999,"REV_AT_EPOCH":7278,"BSTAR":0.00014285147,"MEAN_MOTION_DOT":0.00002565,"MEAN_MOTION_DDOT":0},{"OBJECT_NAME":"LEMUR-2-TILLINFINITY","OBJECT_ID":"2025-061F","EPOCH":"2026-07-21T08:43:23.702592","CLASSIFICATION_TYPE":"U","MEAN_MOTION":15.14992346,"ECCENTRICITY":0.00195307,"INCLINATION":97.5632,"RA_OF_ASC_NODE":178.1598,"ARG_OF_PERICENTER":125.9459,"MEAN_ANOMALY":234.3588,"EPHEMERIS_TYPE":0,"NORAD_CAT_ID":63356,"ELEMENT_SET_NO":999,"REV_AT_EPOCH":7281,"BSTAR":0.00015802109,"MEAN_MOTION_DOT":0.00002895,"MEAN_MOTION_DDOT":0},{"OBJECT_NAME":"LEMUR-2-KREMPEL-BRO1","OBJECT_ID":"2025-061G","EPOCH":"2026-07-21T08:11:28.880736","CLASSIFICATION_TYPE":"U","MEAN_MOTION":15.14799288,"ECCENTRICITY":0.00201405,"INCLINATION":97.5634,"RA_OF_ASC_NODE":178.0443,"ARG_OF_PERICENTER":127.2999,"MEAN_ANOMALY":233.0072,"EPHEMERIS_TYPE":0,"NORAD_CAT_ID":63357,"ELEMENT_SET_NO":999,"REV_AT_EPOCH":7280,"BSTAR":0.00013989822,"MEAN_MOTION_DOT":0.00002542,"MEAN_MOTION_DDOT":0},{"OBJECT_NAME":"LEMUR-2-LANGER2SPACE","OBJECT_ID":"2025-061H","EPOCH":"2026-07-21T08:59:31.876800","CLASSIFICATION_TYPE":"U","MEAN_MOTION":15.14492864,"ECCENTRICITY":0.00179861,"INCLINATION":97.5638,"RA_OF_ASC_NODE":177.8776,"ARG_OF_PERICENTER":135.1709,"MEAN_ANOMALY":225.098,"EPHEMERIS_TYPE":0,"NORAD_CAT_ID":63358,"ELEMENT_SET_NO":999,"REV_AT_EPOCH":7279,"BSTAR":0.00015334369,"MEAN_MOTION_DOT":0.00002765,"MEAN_MOTION_DDOT":0},{"OBJECT_NAME":"LEMUR-2-BALTO","OBJECT_ID":"2025-052BH","EPOCH":"2026-07-21T06:26:51.998496","CLASSIFICATION_TYPE":"U","MEAN_MOTION":15.00396128,"ECCENTRICITY":0.00050028,"INCLINATION":97.6918,"RA_OF_ASC_NODE":95.4959,"ARG_OF_PERICENTER":301.3682,"MEAN_ANOMALY":58.7052,"EPHEMERIS_TYPE":0,"NORAD_CAT_ID":63395,"ELEMENT_SET_NO":999,"REV_AT_EPOCH":7387,"BSTAR":0.00026481333,"MEAN_MOTION_DOT":0.00003268,"MEAN_MOTION_DDOT":0},{"OBJECT_NAME":"LEMUR-2-KRISH","OBJECT_ID":"2025-135AK","EPOCH":"2026-07-21T15:30:46.144224","CLASSIFICATION_TYPE":"U","MEAN_MOTION":14.96480464,"ECCENTRICITY":0.00011754,"INCLINATION":97.7759,"RA_OF_ASC_NODE":317.2956,"ARG_OF_PERICENTER":109.6235,"MEAN_ANOMALY":250.5113,"EPHEMERIS_TYPE":0,"NORAD_CAT_ID":64561,"ELEMENT_SET_NO":999,"REV_AT_EPOCH":5907,"BSTAR":0.00034897027,"MEAN_MOTION_DOT":0.00003905,"MEAN_MOTION_DDOT":0}]}
