{"epoch":1784710044,"count":18256,"objects":[{"id":"63246","name":"LEMUR 2 LEIA-PHILIP","type":"PAYLOAD","l1":"1 63246U 25052AN  26202.41812629  .00000538  00000-0  51270-4 0  9995","l2":"2 63246  97.6787  93.7874 0005060 106.7345 253.4433 14.97395804 73792"},{"id":"63248","name":"LEMUR 2 LIA-MARTIN","type":"PAYLOAD","l1":"1 63248U 25052AQ  26202.27639733  .00002331  00000-0  20205-3 0  9990","l2":"2 63248  97.6849  94.1774 0004845  75.1946 284.9813 14.98052658 73781"},{"id":"63259","name":"LEMUR 2 DELOITTE-1","type":"PAYLOAD","l1":"1 63259U 25052BB  26202.52506276  .00003086  00000-0  26750-3 0  9994","l2":"2 63259  97.6886  94.7523 0002492  54.5188 305.6266 14.97817800 73833"},{"id":"63261","name":"LEMUR 2 EMERSONROSE","type":"PAYLOAD","l1":"1 63261U 25052BD  26202.26592442  .00002928  00000-0  24445-3 0  9991","l2":"2 63261  97.6883  95.1243 0002359  46.3437 313.7981 14.99322882 73843"},{"id":"63262","name":"LEMUR 2 MARACHE-FRAN","type":"PAYLOAD","l1":"1 63262U 25052BE  26202.21782045  .00002862  00000-0  23280-3 0  9990","l2":"2 63262  97.6814  95.4490 0005918 228.3986 131.6731 15.00340069 73862"},{"id":"63264","name":"LEMUR 2 THEFALCONER","type":"PAYLOAD","l1":"1 63264U 25052BG  26202.48966254  .00002146  00000-0  18869-3 0  9999","l2":"2 63264  97.6812  94.3007 0000819 210.8194 149.2980 14.97583797 73825"},{"id":"63351","name":"LEMUR 2 UNTITLED-SC","type":"PAYLOAD","l1":"1 63351U 25061A   26202.33388405  .00002423  00000-0  13780-3 0  9991","l2":"2 63351  97.5662 177.4555 0019751 142.7296 217.5311 15.13672117 72758"},{"id":"63352","name":"LEMUR 2 ESPERANZA","type":"PAYLOAD","l1":"1 63352U 25061B   26202.37488952  .00002325  00000-0  13205-3 0  9997","l2":"2 63352  97.5669 177.5980 0019400 141.9875 218.2730 15.13778548 72763"},{"id":"63353","name":"LEMUR 2 KREMPEL-BRO2","type":"PAYLOAD","l1":"1 63353U 25061C   26202.39211965  .00002523  00000-0  14118-3 0  9992","l2":"2 63353  97.5715 178.1919 0020488 134.8960 225.3939 15.14206402 72787"},{"id":"63354","name":"LEMUR 2 THERMORAPTOR","type":"PAYLOAD","l1":"1 63354U 25061D   26202.37233723  .00002478  00000-0  13846-3 0  9993","l2":"2 63354  97.5721 178.2545 0020231 133.9523 226.3381 15.14289501 72785"},{"id":"63355","name":"LEMUR 2 NEUROSPICY","type":"PAYLOAD","l1":"1 63355U 25061E   26202.34136765  .00002565  00000-0  14285-3 0  9994","l2":"2 63355  97.5648 177.8235 0018014 136.8430 223.4217 15.14408159 72788"},{"id":"63356","name":"LEMUR 2 TILLINFINITY","type":"PAYLOAD","l1":"1 63356U 25061F   26202.36346878  .00002895  00000-0  15802-3 0  9997","l2":"2 63356  97.5632 178.1598 0019531 125.9459 234.3588 15.14992346 72815"},{"id":"63357","name":"LEMUR 2 KREMPEL-BRO1","type":"PAYLOAD","l1":"1 63357U 25061G   26202.34130649  .00002542  00000-0  13990-3 0  9998","l2":"2 63357  97.5634 178.0443 0020141 127.2999 233.0072 15.14799288 72802"},{"id":"63358","name":"LEMUR 2 LANGER2SPACE","type":"PAYLOAD","l1":"1 63358U 25061H   26202.37467450  .00002765  00000-0  15334-3 0  9996","l2":"2 63358  97.5638 177.8776 0017986 135.1709 225.0980 15.14492864 72790"},{"id":"63395","name":"LEMUR 2 BALTO","type":"PAYLOAD","l1":"1 63395U 25052BH  26202.26865739  .00003268  00000-0  26481-3 0  9991","l2":"2 63395  97.6918  95.4959 0005003 301.3682  58.7052 15.00396128 73877"},{"id":"64561","name":"LEMUR 2 KRISH","type":"PAYLOAD","l1":"1 64561U 25135AK  26202.64636741  .00003905  00000-0  34897-3 0  9998","l2":"2 64561  97.7759 317.2956 0001175 109.6235 250.5113 14.96480464 59075"}]}